{
    "links": {
        "self": "http://www.neowsapp.com/rest/v1/neo/3611413?api_key=iIulBulltgU6a56xZRHN4H3l9WmuAYTsLGpBGhQ2"
    },
    "id": "3611413",
    "neo_reference_id": "3611413",
    "name": "(2012 UK)",
    "designation": "2012 UK",
    "nasa_jpl_url": "http://ssd.jpl.nasa.gov/sbdb.cgi?sstr=3611413",
    "absolute_magnitude_h": 24.6,
    "estimated_diameter": {
        "kilometers": {
            "estimated_diameter_min": 0.0319561887,
            "estimated_diameter_max": 0.0714562102
        },
        "meters": {
            "estimated_diameter_min": 31.9561886721,
            "estimated_diameter_max": 71.4562101727
        },
        "miles": {
            "estimated_diameter_min": 0.0198566489,
            "estimated_diameter_max": 0.0444008168
        },
        "feet": {
            "estimated_diameter_min": 104.8431420431,
            "estimated_diameter_max": 234.436392583
        }
    },
    "is_potentially_hazardous_asteroid": false,
    "close_approach_data": [
        {
            "close_approach_date": "2012-11-03",
            "close_approach_date_full": "2012-Nov-03 07:05",
            "epoch_date_close_approach": 1351926300000,
            "relative_velocity": {
                "kilometers_per_second": "8.3549427578",
                "kilometers_per_hour": "30077.793928182",
                "miles_per_hour": "18689.1714549862"
            },
            "miss_distance": {
                "astronomical": "0.1012493323",
                "lunar": "39.3859902647",
                "kilometers": "15146684.451002201",
                "miles": "9411713.2909083338"
            },
            "orbiting_body": "Earth"
        }
    ],
    "orbital_data": {
        "orbit_id": "5",
        "orbit_determination_date": "2017-04-06 08:48:29",
        "first_observation_date": "2012-10-16",
        "last_observation_date": "2012-10-21",
        "data_arc_in_days": 5,
        "observations_used": 14,
        "orbit_uncertainty": "9",
        "minimum_orbit_intersection": ".097714",
        "jupiter_tisserand_invariant": "4.407",
        "epoch_osculation": "2456218.5",
        "eccentricity": ".3514456064168431",
        "semi_major_axis": "1.526832021187847",
        "inclination": "9.803761513995848",
        "ascending_node_longitude": "18.07894210440569",
        "orbital_period": "689.1048652693887",
        "perihelion_distance": ".9902336156048297",
        "perihelion_argument": "65.38127617801209",
        "aphelion_distance": "2.063430426770863",
        "perihelion_time": "2456271.199177483470",
        "mean_anomaly": "332.4690611687487",
        "mean_motion": ".5224168601091893",
        "equinox": "J2000",
        "orbit_class": {
            "orbit_class_type": "APO",
            "orbit_class_description": "Near-Earth asteroid orbits which cross the Earth’s orbit similar to that of 1862 Apollo",
            "orbit_class_range": "a (semi-major axis) > 1.0 AU; q (perihelion) < 1.017 AU"
        }
    },
    "is_sentry_object": false
}